[{"OBJECT_NAME":"ONEWEB-0675","OBJECT_ID":"2023-029AQ","EPOCH":"2026-03-09T23:06:48.126528","MEAN_MOTION":13.19724685,"ECCENTRICITY":0.00019574,"INCLINATION":87.9222,"RA_OF_ASC_NODE":324.7495,"ARG_OF_PERICENTER":74.7124,"MEAN_ANOMALY":285.4225,"EPHEMERIS_TYPE":0,"CLASSIFICATION_TYPE":"U","NORAD_CAT_ID":55834,"ELEMENT_SET_NO":999,"REV_AT_EPOCH":14583,"BSTAR":-0.00015230399,"MEAN_MOTION_DOT":-4.8e-7,"MEAN_MOTION_DDOT":0},{"OBJECT_NAME":"SCOUT G-1 DEB","OBJECT_ID":"1985-066F","EPOCH":"2026-03-08T07:04:37.312320","MEAN_MOTION":13.41019651,"ECCENTRICITY":0.01380588,"INCLINATION":90.2222,"RA_OF_ASC_NODE":9.4657,"ARG_OF_PERICENTER":231.2309,"MEAN_ANOMALY":283.6905,"EPHEMERIS_TYPE":0,"CLASSIFICATION_TYPE":"U","NORAD_CAT_ID":16020,"ELEMENT_SET_NO":999,"REV_AT_EPOCH":98239,"BSTAR":0.00022356574,"MEAN_MOTION_DOT":1.38e-6,"MEAN_MOTION_DDOT":0}]
